[ {"OBJECT_NAME": "YAOGAN-43 01E", "NORAD_CAT_ID": 60462, "MEAN_MOTION": 15.2287799, "ECCENTRICITY": 0.0005107, "INCLINATION": 34.9923, "RA_OF_ASC_NODE": 199.9315, "ARG_OF_PERICENTER": 4.9065, "MEAN_ANOMALY": 355.1699, "BSTAR": 0.00027447, "EPOCH": "2026-04-14T15:08:38"}, {"OBJECT_NAME": "YAOGAN-39 03B", "NORAD_CAT_ID": 57988, "MEAN_MOTION": 15.175347, "ECCENTRICITY": 0.001946, "INCLINATION": 34.9916, "RA_OF_ASC_NODE": 334.529, "ARG_OF_PERICENTER": 11.5847, "MEAN_ANOMALY": 348.5311, "BSTAR": 0.00017946000000000002, "EPOCH": "2026-04-14T07:47:33"}, {"OBJECT_NAME": "YAOGAN-35 01A", "NORAD_CAT_ID": 49390, "MEAN_MOTION": 15.25682239, "ECCENTRICITY": 0.0004439, "INCLINATION": 34.9923, "RA_OF_ASC_NODE": 317.4799, "ARG_OF_PERICENTER": 166.5454, "MEAN_ANOMALY": 193.5381, "BSTAR": 0.00019422000000000002, "EPOCH": "2026-04-14T15:32:36"}, {"OBJECT_NAME": "YAOGAN-29", "NORAD_CAT_ID": 41038, "MEAN_MOTION": 14.83032564, "ECCENTRICITY": 8.7e-05, "INCLINATION": 98.0094, "RA_OF_ASC_NODE": 133.1395, "ARG_OF_PERICENTER": 159.4735, "MEAN_ANOMALY": 200.6513, "BSTAR": 1.4205000000000002e-05, "EPOCH": "2026-04-14T14:55:15"}, {"OBJECT_NAME": "YAOGAN-3", "NORAD_CAT_ID": 32289, "MEAN_MOTION": 14.90541334, "ECCENTRICITY": 0.0001221, "INCLINATION": 97.8221, "RA_OF_ASC_NODE": 135.1255, "ARG_OF_PERICENTER": 89.5646, "MEAN_ANOMALY": 270.5712, "BSTAR": 0.00013455000000000002, "EPOCH": "2026-04-14T15:01:43"}, {"OBJECT_NAME": "YAOGAN-4", "NORAD_CAT_ID": 33446, "MEAN_MOTION": 14.83081343, "ECCENTRICITY": 0.0012828, "INCLINATION": 97.928, "RA_OF_ASC_NODE": 38.5443, "ARG_OF_PERICENTER": 279.4543, "MEAN_ANOMALY": 80.522, "BSTAR": 7.781900000000001e-05, "EPOCH": "2026-04-14T13:07:24"}, {"OBJECT_NAME": "YAOGAN-7", "NORAD_CAT_ID": 36110, "MEAN_MOTION": 14.77946818, "ECCENTRICITY": 0.0023308, "INCLINATION": 98.0153, "RA_OF_ASC_NODE": 350.4158, "ARG_OF_PERICENTER": 244.4969, "MEAN_ANOMALY": 115.3831, "BSTAR": 4.7455000000000006e-05, "EPOCH": "2026-04-14T04:17:33"}, {"OBJECT_NAME": "YAOGAN-21", "NORAD_CAT_ID": 40143, "MEAN_MOTION": 15.25493229, "ECCENTRICITY": 0.0006977, "INCLINATION": 97.1551, "RA_OF_ASC_NODE": 147.6042, "ARG_OF_PERICENTER": 328.8753, "MEAN_ANOMALY": 31.2072, "BSTAR": 0.00015323, "EPOCH": "2026-04-14T14:49:57"}, {"OBJECT_NAME": "YAOGAN-12", "NORAD_CAT_ID": 37875, "MEAN_MOTION": 15.25795978, "ECCENTRICITY": 0.0011917, "INCLINATION": 97.1217, "RA_OF_ASC_NODE": 146.1759, "ARG_OF_PERICENTER": 92.1194, "MEAN_ANOMALY": 268.1409, "BSTAR": 0.0001143, "EPOCH": "2026-04-14T14:26:22"}, {"OBJECT_NAME": "YAOGAN-33 01", "NORAD_CAT_ID": 47302, "MEAN_MOTION": 14.58828243, "ECCENTRICITY": 0.0002998, "INCLINATION": 98.0501, "RA_OF_ASC_NODE": 348.1576, "ARG_OF_PERICENTER": 1.4865, "MEAN_ANOMALY": 358.6343, "BSTAR": 5.9221e-05, "EPOCH": "2026-04-14T13:53:26"}, {"OBJECT_NAME": "YAOGAN-39 02B", "NORAD_CAT_ID": 57889, "MEAN_MOTION": 15.1721271, "ECCENTRICITY": 0.0003558, "INCLINATION": 34.9904, "RA_OF_ASC_NODE": 260.7798, "ARG_OF_PERICENTER": 214.7351, "MEAN_ANOMALY": 145.313, "BSTAR": 0.00017124, "EPOCH": "2026-04-14T14:23:37"}, {"OBJECT_NAME": "YAOGAN-30 05B", "NORAD_CAT_ID": 43171, "MEAN_MOTION": 15.02339871, "ECCENTRICITY": 8.9e-05, "INCLINATION": 34.9944, "RA_OF_ASC_NODE": 178.3357, "ARG_OF_PERICENTER": 153.4484, "MEAN_ANOMALY": 206.627, "BSTAR": 0.0001211, "EPOCH": "2026-04-14T13:49:24"}, {"OBJECT_NAME": "YAOGAN-36 03C", "NORAD_CAT_ID": 54376, "MEAN_MOTION": 15.22896615, "ECCENTRICITY": 0.00076, "INCLINATION": 35.0108, "RA_OF_ASC_NODE": 21.6772, "ARG_OF_PERICENTER": 170.4043, "MEAN_ANOMALY": 189.6818, "BSTAR": 0.00039465, "EPOCH": "2026-04-14T05:36:59"}, {"OBJECT_NAME": "YAOGAN-25 01C", "NORAD_CAT_ID": 40340, "MEAN_MOTION": 13.45342308, "ECCENTRICITY": 0.036136, "INCLINATION": 63.3852, "RA_OF_ASC_NODE": 115.1473, "ARG_OF_PERICENTER": 9.2956, "MEAN_ANOMALY": 351.4526, "BSTAR": 2.7305000000000004e-05, "EPOCH": "2026-04-14T14:01:30"}, {"OBJECT_NAME": "YAOGAN-35 04A", "NORAD_CAT_ID": 53522, "MEAN_MOTION": 15.22902118, "ECCENTRICITY": 0.0007682, "INCLINATION": 35.0096, "RA_OF_ASC_NODE": 94.9248, "ARG_OF_PERICENTER": 37.8864, "MEAN_ANOMALY": 322.2391, "BSTAR": 1.0399e-05, "EPOCH": "2026-04-14T01:51:39"}, {"OBJECT_NAME": "YAOGAN-43 03C", "NORAD_CAT_ID": 61619, "MEAN_MOTION": 15.23102502, "ECCENTRICITY": 0.0005006, "INCLINATION": 34.9951, "RA_OF_ASC_NODE": 237.9754, "ARG_OF_PERICENTER": 134.7953, "MEAN_ANOMALY": 225.3169, "BSTAR": 8.288e-05, "EPOCH": "2026-04-14T14:26:12"}, {"OBJECT_NAME": "YAOGAN-16 01A", "NORAD_CAT_ID": 39011, "MEAN_MOTION": 13.45508038, "ECCENTRICITY": 0.0430465, "INCLINATION": 63.3523, "RA_OF_ASC_NODE": 94.7058, "ARG_OF_PERICENTER": 26.5864, "MEAN_ANOMALY": 335.6553, "BSTAR": 6.7448e-05, "EPOCH": "2026-04-14T08:07:01"}, {"OBJECT_NAME": "NAVSTAR 66 (USA 232)", "NORAD_CAT_ID": 37753, "MEAN_MOTION": 2.00562927, "ECCENTRICITY": 0.0141389, "INCLINATION": 56.5932, "RA_OF_ASC_NODE": 334.5072, "ARG_OF_PERICENTER": 61.4958, "MEAN_ANOMALY": 103.461, "BSTAR": 0.0, "EPOCH": "2026-04-14T06:36:31"}, {"OBJECT_NAME": "NAVSTAR 46 (USA 145)", "NORAD_CAT_ID": 25933, "MEAN_MOTION": 2.00565548, "ECCENTRICITY": 0.0106452, "INCLINATION": 51.5217, "RA_OF_ASC_NODE": 298.254, "ARG_OF_PERICENTER": 172.8674, "MEAN_ANOMALY": 193.8631, "BSTAR": 0.0, "EPOCH": "2026-04-14T11:41:29"}]