NAVSTAR 46 (USA 145)
1 25933U 99055A   26104.48714973 -.00000023  00000+0  00000+0 0  9990
2 25933  51.5217 298.2540 0106452 172.8674 193.8631  2.00565548194301
YAOGAN-3
1 32289U 07055A   26104.62620110  .00001259  00000+0  13455-3 0  9999
2 32289  97.8221 135.1255 0001221  89.5646 270.5712 14.90541334996395
YAOGAN-4
1 33446U 08061A   26104.54680898  .00000580  00000+0  77819-4 0  9994
2 33446  97.9280  38.5443 0012828 279.4543  80.5220 14.83081343936234
YAOGAN-7
1 36110U 09069A   26104.17886259  .00000290  00000+0  47455-4 0  9993
2 36110  98.0153 350.4158 0023308 244.4969 115.3831 14.77946818880170
NAVSTAR 66 (USA 232)
1 37753U 11036A   26104.27536640 -.00000050  00000+0  00000+0 0  9996
2 37753  56.5932 334.5072 0141389  61.4958 103.4610  2.00562927107994
YAOGAN-12
1 37875U 11066B   26104.60164361  .00002858  00000+0  11430-3 0  9998
2 37875  97.1217 146.1759 0011917  92.1194 268.1409 15.25795978802342
YAOGAN-16 01A
1 39011U 12066A   26104.33821624 -.00000021  00000+0  67448-4 0  9997
2 39011  63.3523  94.7058 0430465  26.5864 335.6553 13.45508038657559
YAOGAN-21
1 40143U 14053A   26104.61802775  .00003814  00000+0  15323-3 0  9996
2 40143  97.1551 147.6042 0006977 328.8753  31.2072 15.25493229645261
YAOGAN-25 01C
1 40340U 14080C   26104.58438480 -.00000067  00000+0  27305-4 0  9991
2 40340  63.3852 115.1473 0361360   9.2956 351.4526 13.45342308557198
YAOGAN-29
1 41038U 15069A   26104.62170898  .00000061  00000+0  14205-4 0  9993
2 41038  98.0094 133.1395 0000870 159.4735 200.6513 14.83032564561209
YAOGAN-30 05B
1 43171U 18011C   26104.57597743  .00001604  00000+0  12110-3 0  9995
2 43171  34.9944 178.3357 0000890 153.4484 206.6270 15.02339871448649
YAOGAN-33 01
1 47302U 20103A   26104.57877501  .00000232  00000+0  59221-4 0  9994
2 47302  98.0501 348.1576 0002998   1.4865 358.6343 14.58828243282039
YAOGAN-35 01A
1 49390U 21101A   26104.64764720  .00005037  00000+0  19422-3 0  9994
2 49390  34.9923 317.4799 0004439 166.5454 193.5381 15.25682239247161
YAOGAN-35 04A
1 53522U 22100A   26104.07753788  .00000212  00000+0  10399-4 0  9990
2 53522  35.0096  94.9248 0007682  37.8864 322.2391 15.22902118203487
YAOGAN-36 03C
1 54376U 22160E   26104.23402211  .00009460  00000+0  39465-3 0  9992
2 54376  35.0108  21.6772 0007600 170.4043 189.6818 15.22896615188295
YAOGAN-39 02B
1 57889U 23145D   26104.59974282  .00003451  00000+0  17124-3 0  9991
2 57889  34.9904 260.7798 0003558 214.7351 145.3130 15.17212710143227
YAOGAN-39 03B
1 57988U 23152C   26104.32469869  .00003668  00000+0  17946-3 0  9992
2 57988  34.9916 334.5290 0019460  11.5847 348.5311 15.17534700140488
YAOGAN-43 01E
1 60462U 24148E   26104.63099853  .00006559  00000+0  27447-3 0  9994
2 60462  34.9923 199.9315 0005107   4.9065 355.1699 15.22877990 92463
YAOGAN-43 03C
1 61619U 24190C   26104.60153207  .00001967  00000+0  82880-4 0  9998
2 61619  34.9951 237.9754 0005006 134.7953 225.3169 15.23102502 82128
